{
  "norad_id": 61209,
  "name": "STARLINK-11304 [DTC]",
  "history": [
    {
      "epoch": "2026-03-28T09:53:18.488256Z",
      "apogee_km": 360.5404940583121,
      "perigee_km": 358.719410406462,
      "latitude_deg": -2.0991664619159688e-05,
      "longitude_deg": 109.48440923505959,
      "height_km": 360.30478452124856,
      "semi_major_axis_km": 6737.766952232387,
      "eccentricity": 0.00013514,
      "inclination_deg": 53.1588,
      "raan_deg": 83.6443,
      "arg_perigee_deg": 74.8193,
      "mean_anomaly_deg": 285.2974,
      "mean_motion_rev_day": 15.69743827
    },
    {
      "epoch": "2026-03-29T04:13:33.269664Z",
      "apogee_km": 360.40829233244585,
      "perigee_km": 359.0890143215238,
      "latitude_deg": 7.382355773903776e-06,
      "longitude_deg": -170.09335083706532,
      "height_km": 360.2200285628466,
      "semi_major_axis_km": 6737.8856533269845,
      "eccentricity": 9.79e-05,
      "inclination_deg": 53.1595,
      "raan_deg": 79.8812,
      "arg_perigee_deg": 47.8429,
      "mean_anomaly_deg": 312.2672,
      "mean_motion_rev_day": 15.69702346
    },
    {
      "epoch": "2026-03-30T04:40:29.686656Z",
      "apogee_km": 360.6070618434542,
      "perigee_km": 358.86599532366836,
      "latitude_deg": -4.505605915538845e-05,
      "longitude_deg": 177.14335499604135,
      "height_km": 360.53337435235375,
      "semi_major_axis_km": 6737.873528583561,
      "eccentricity": 0.0001292,
      "inclination_deg": 53.1602,
      "raan_deg": 74.8571,
      "arg_perigee_deg": 82.3028,
      "mean_anomaly_deg": 277.8136,
      "mean_motion_rev_day": 15.69706583
    },
    {
      "epoch": "2026-03-30T04:40:29.687520Z",
      "apogee_km": 360.60692708598435,
      "perigee_km": 358.8661300811391,
      "latitude_deg": -4.322735482962515e-05,
      "longitude_deg": 177.1433527485222,
      "height_km": 360.5333924010212,
      "semi_major_axis_km": 6737.873528583561,
      "eccentricity": 0.00012918,
      "inclination_deg": 53.1602,
      "raan_deg": 74.8571,
      "arg_perigee_deg": 82.3028,
      "mean_anomaly_deg": 277.8136,
      "mean_motion_rev_day": 15.69706583
    },
    {
      "epoch": "2026-03-30T09:15:32.904864Z",
      "apogee_km": 360.38476436161454,
      "perigee_km": 359.0952694581183,
      "latitude_deg": -2.5241213696177454e-05,
      "longitude_deg": 107.25009325380097,
      "height_km": 360.61477005243256,
      "semi_major_axis_km": 6737.877016909866,
      "eccentricity": 9.569e-05,
      "inclination_deg": 53.1603,
      "raan_deg": 73.9155,
      "arg_perigee_deg": 86.5202,
      "mean_anomaly_deg": 273.5925,
      "mean_motion_rev_day": 15.69705364
    },
    {
      "epoch": "2026-03-31T15:49:11.008416Z",
      "apogee_km": 360.4016348203668,
      "perigee_km": 358.9462676549001,
      "latitude_deg": -6.3238924647441594e-06,
      "longitude_deg": 1.309765581170449,
      "height_km": 360.3083497605754,
      "semi_major_axis_km": 6737.810951237633,
      "eccentricity": 0.000108,
      "inclination_deg": 53.1603,
      "raan_deg": 67.639,
      "arg_perigee_deg": 67.4172,
      "mean_anomaly_deg": 292.696,
      "mean_motion_rev_day": 15.69728451
    },
    {
      "epoch": "2026-04-01T14:44:29.070240Z",
      "apogee_km": 360.0814530634743,
      "perigee_km": 359.42518254651986,
      "latitude_deg": 2.8791264248544913e-05,
      "longitude_deg": 11.837075272070207,
      "height_km": 360.60568955200523,
      "semi_major_axis_km": 6737.890317804997,
      "eccentricity": 4.87e-05,
      "inclination_deg": 53.1593,
      "raan_deg": 62.9329,
      "arg_perigee_deg": 79.1062,
      "mean_anomaly_deg": 281.0011,
      "mean_motion_rev_day": 15.69700716
    },
    {
      "epoch": "2026-04-02T15:11:23.404992Z",
      "apogee_km": 360.4437227258504,
      "perigee_km": 358.88755982782095,
      "latitude_deg": -5.565230720022579e-08,
      "longitude_deg": -0.922401292480599,
      "height_km": 360.9841810302779,
      "semi_major_axis_km": 6737.802641276835,
      "eccentricity": 0.00011548,
      "inclination_deg": 53.1597,
      "raan_deg": 57.9039,
      "arg_perigee_deg": 121.346,
      "mean_anomaly_deg": 238.7671,
      "mean_motion_rev_day": 15.69731355
    },
    {
      "epoch": "2026-04-03T14:06:40.957920Z",
      "apogee_km": 360.5682813152216,
      "perigee_km": 358.97004997273143,
      "latitude_deg": 2.911901963806985e-05,
      "longitude_deg": 9.607829154026762,
      "height_km": 360.71943503619417,
      "semi_major_axis_km": 6737.906165643976,
      "eccentricity": 0.0001186,
      "inclination_deg": 53.1601,
      "raan_deg": 53.1986,
      "arg_perigee_deg": 92.6341,
      "mean_anomaly_deg": 267.4813,
      "mean_motion_rev_day": 15.69695178
    },
    {
      "epoch": "2026-04-04T03:51:50.155488Z",
      "apogee_km": 360.520867923733,
      "perigee_km": 358.95929753103974,
      "latitude_deg": 3.4074777359377355e-05,
      "longitude_deg": 159.93001210224614,
      "height_km": 360.68248691892387,
      "semi_major_axis_km": 6737.877082727386,
      "eccentricity": 0.00011588,
      "inclination_deg": 53.1601,
      "raan_deg": 50.3739,
      "arg_perigee_deg": 92.1154,
      "mean_anomaly_deg": 267.9997,
      "mean_motion_rev_day": 15.69705341
    },
    {
      "epoch": "2026-04-05T13:28:53.082336Z",
      "apogee_km": 360.6653081292625,
      "perigee_km": 358.8289651866562,
      "latitude_deg": 2.350681974930037e-05,
      "longitude_deg": 7.3810863935957975,
      "height_km": 360.60354560095544,
      "semi_major_axis_km": 6737.884136657959,
      "eccentricity": 0.00013627,
      "inclination_deg": 53.1601,
      "raan_deg": 43.4678,
      "arg_perigee_deg": 86.447,
      "mean_anomaly_deg": 273.6704,
      "mean_motion_rev_day": 15.69702876
    },
    {
      "epoch": "2026-04-05T21:07:16.091040Z",
      "apogee_km": 360.4585951130048,
      "perigee_km": 358.88464301958993,
      "latitude_deg": -2.7002014639039713e-05,
      "longitude_deg": -109.09537374681102,
      "height_km": 360.6463037793667,
      "semi_major_axis_km": 6737.808619066297,
      "eccentricity": 0.0001168,
      "inclination_deg": 53.16,
      "raan_deg": 41.901,
      "arg_perigee_deg": 94.4531,
      "mean_anomaly_deg": 265.662,
      "mean_motion_rev_day": 15.69729266
    },
    {
      "epoch": "2026-04-06T01:42:22.284000Z",
      "apogee_km": 360.4946727005772,
      "perigee_km": 359.0867153296358,
      "latitude_deg": 3.973698222996964e-05,
      "longitude_deg": -179.00072987919842,
      "height_km": 360.502633134936,
      "semi_major_axis_km": 6737.927694015106,
      "eccentricity": 0.00010448,
      "inclination_deg": 53.16,
      "raan_deg": 40.9597,
      "arg_perigee_deg": 73.3386,
      "mean_anomaly_deg": 286.7747,
      "mean_motion_rev_day": 15.69687655
    },
    {
      "epoch": "2026-04-07T02:09:17.707392Z",
      "apogee_km": 360.2931191635025,
      "perigee_km": 359.2224676808273,
      "latitude_deg": 2.1367243500256204e-05,
      "longitude_deg": 168.24144945855133,
      "height_km": 360.7025990055155,
      "semi_major_axis_km": 6737.894793422164,
      "eccentricity": 7.945e-05,
      "inclination_deg": 53.1577,
      "raan_deg": 35.9369,
      "arg_perigee_deg": 93.3198,
      "mean_anomaly_deg": 266.7911,
      "mean_motion_rev_day": 15.69699152
    },
    {
      "epoch": "2026-04-08T05:39:36.248544Z",
      "apogee_km": 360.5852007041085,
      "perigee_km": 358.9182470338228,
      "latitude_deg": 3.2641200049044294e-05,
      "longitude_deg": 108.88500327531239,
      "height_km": 360.668317755783,
      "semi_major_axis_km": 6737.888723868965,
      "eccentricity": 0.0001237,
      "inclination_deg": 53.1583,
      "raan_deg": 30.2873,
      "arg_perigee_deg": 90.2279,
      "mean_anomaly_deg": 269.8881,
      "mean_motion_rev_day": 15.69701273
    },
    {
      "epoch": "2026-04-09T01:31:30.152352Z",
      "apogee_km": 360.97222617937314,
      "perigee_km": 358.5527812255832,
      "latitude_deg": 3.545583347735273e-05,
      "longitude_deg": 166.0147781638556,
      "height_km": 360.88377390831903,
      "semi_major_axis_km": 6737.899503702478,
      "eccentricity": 0.00017954,
      "inclination_deg": 53.1587,
      "raan_deg": 26.2075,
      "arg_perigee_deg": 99.9342,
      "mean_anomaly_deg": 260.1879,
      "mean_motion_rev_day": 15.69697506
    },
    {
      "epoch": "2026-04-10T00:26:44.729664Z",
      "apogee_km": 360.4719064480414,
      "perigee_km": 358.96761254791636,
      "latitude_deg": 2.0364780442346247e-05,
      "longitude_deg": 176.55420499749167,
      "height_km": 360.7303417278931,
      "semi_major_axis_km": 6737.856759497979,
      "eccentricity": 0.00011163,
      "inclination_deg": 53.1598,
      "raan_deg": 21.499,
      "arg_perigee_deg": 97.4066,
      "mean_anomaly_deg": 262.7079,
      "mean_motion_rev_day": 15.69712443
    },
    {
      "epoch": "2026-04-11T11:35:29.262048Z",
      "apogee_km": 360.3632590419011,
      "perigee_km": 359.1571754400147,
      "latitude_deg": 7.821859189014155e-06,
      "longitude_deg": 0.7078582083002614,
      "height_km": 360.5715445075791,
      "semi_major_axis_km": 6737.897217240958,
      "eccentricity": 8.95e-05,
      "inclination_deg": 53.16,
      "raan_deg": 14.2816,
      "arg_perigee_deg": 80.2025,
      "mean_anomaly_deg": 279.9094,
      "mean_motion_rev_day": 15.69698305
    },
    {
      "epoch": "2026-04-13T00:15:53.857728Z",
      "apogee_km": 360.5311146773374,
      "perigee_km": 359.0536215255006,
      "latitude_deg": 6.800516639516228e-06,
      "longitude_deg": 161.56344706138657,
      "height_km": 360.5581274336601,
      "semi_major_axis_km": 6737.929368101419,
      "eccentricity": 0.00010964,
      "inclination_deg": 53.16,
      "raan_deg": 6.7458,
      "arg_perigee_deg": 78.449,
      "mean_anomaly_deg": 281.6651,
      "mean_motion_rev_day": 15.6968707
    }
  ]
}